*******************************************************************************
Ephemeris / WWW_USER Fri Apr 12 18:13:43 2019 Pasadena, USA      / Horizons    
*******************************************************************************
Target body name: Moon (301)                      {source: DE431mx}
Center body name: Earth (399)                     {source: DE431mx}
Center-site name: (user defined site below)
*******************************************************************************
Start time      : A.D. 2018-Dec-02 00:00:00.0000 UT      
Stop  time      : A.D. 2018-Dec-04 00:00:00.0000 UT      
Step-size       : 5 minutes
*******************************************************************************
Target pole/equ : IAU_MOON                        {East-longitude positive}
Target radii    : 1737.4 x 1737.4 x 1737.4 km     {Equator, meridian, pole}    
Center geodetic : 150.000000,-30.000000,0.0100000 {E-lon(deg),Lat(deg),Alt(km)}
Center cylindric: 150.000000,5528.26530,-3170.379 {E-lon(deg),Dxy(km),Dz(km)}
Center pole/equ : High-precision EOP model        {East-longitude positive}
Center radii    : 6378.1 x 6378.1 x 6356.8 km     {Equator, meridian, pole}    
Target primary  : Earth
Vis. interferer : MOON (R_eq= 1737.400) km        {source: DE431mx}
Rel. light bend : Sun, EARTH                      {source: DE431mx}
Rel. lght bnd GM: 1.3271E+11, 3.9860E+05 km^3/s^2                              
Atmos refraction: YES (Earth refraction model)
RA format       : DEG
Time format     : CAL 
RTS-only print  : NO       
EOP file        : eop.190411.p190703                                           
EOP coverage    : DATA-BASED 1962-JAN-20 TO 2019-APR-11. PREDICTS-> 2019-JUL-02
Units conversion: 1 au= 149597870.700 km, c= 299792.458 km/s, 1 day= 86400.0 s 
Table cut-offs 1: Elevation (-90.0deg=NO ),Airmass (>38.000=NO), Daylight (NO )
Table cut-offs 2: Solar elongation (  0.0,180.0=NO ),Local Hour Angle( 0.0=NO )
Table cut-offs 3: RA/DEC angular rate (     0.0=NO )                           
********************************************************************************
 Date__(UT)__HR:MN     R.A._(ICRF/J2K)_DEC R.A._(r-appar)_DEC. Azi_(r-appr)_Elev
********************************************************************************
$$SOE
 2018-Dec-02 00:00 *m  185.98865   2.88277 186.23608   2.76737 308.6575  43.4962
 2018-Dec-02 00:05 *m  186.01816   2.86477 186.26615   2.74921 307.4182  42.6750
 2018-Dec-02 00:10 *m  186.04790   2.84677 186.29646   2.73102 306.2129  41.8401
 2018-Dec-02 00:15 *m  186.07787   2.82876 186.32703   2.71281 305.0401  40.9922
 2018-Dec-02 00:20 *m  186.10808   2.81074 186.35785   2.69458 303.8987  40.1320
 2018-Dec-02 00:25 *m  186.13853   2.79272 186.38894   2.67633 302.7874  39.2602
 2018-Dec-02 00:30 *m  186.16923   2.77469 186.42031   2.65806 301.7048  38.3776
 2018-Dec-02 00:35 *m  186.20018   2.75665 186.45195   2.63976 300.6498  37.4846
 2018-Dec-02 00:40 *m  186.23140   2.73860 186.48389   2.62144 299.6211  36.5818
 2018-Dec-02 00:45 *m  186.26289   2.72055 186.51613   2.60310 298.6176  35.6699
 2018-Dec-02 00:50 *m  186.29465   2.70250 186.54867   2.58473 297.6382  34.7493
 2018-Dec-02 00:55 *m  186.32669   2.68444 186.58153   2.56634 296.6818  33.8205
 2018-Dec-02 01:00 *m  186.35901   2.66638 186.61471   2.54792 295.7473  32.8840
 2018-Dec-02 01:05 *m  186.39162   2.64831 186.64823   2.52946 294.8336  31.9402
 2018-Dec-02 01:10 *m  186.42453   2.63025 186.68209   2.51098 293.9398  30.9896
 2018-Dec-02 01:15 *m  186.45774   2.61218 186.71630   2.49246 293.0650  30.0326
 2018-Dec-02 01:20 *m  186.49125   2.59411 186.75087   2.47391 292.2081  29.0695
 2018-Dec-02 01:25 *m  186.52507   2.57603 186.78582   2.45532 291.3684  28.1007
 2018-Dec-02 01:30 *m  186.55920   2.55796 186.82116   2.43668 290.5449  27.1265
 2018-Dec-02 01:35 *m  186.59365   2.53989 186.85689   2.41800 289.7369  26.1473
 2018-Dec-02 01:40 *m  186.62842   2.52181 186.89303   2.39926 288.9436  25.1634
 2018-Dec-02 01:45 *m  186.66352   2.50374 186.92960   2.38047 288.1641  24.1750
 2018-Dec-02 01:50 *m  186.69895   2.48567 186.96662   2.36161 287.3978  23.1826
 2018-Dec-02 01:55 *m  186.73471   2.46760 187.00410   2.34268 286.6440  22.1862
 2018-Dec-02 02:00 *m  186.77081   2.44954 187.04206   2.32367 285.9019  21.1863
 2018-Dec-02 02:05 *m  186.80725   2.43148 187.08053   2.30456 285.1710  20.1831
 2018-Dec-02 02:10 *m  186.84403   2.41342 187.11954   2.28534 284.4505  19.1768
 2018-Dec-02 02:15 *m  186.88115   2.39536 187.15912   2.26600 283.7399  18.1678
 2018-Dec-02 02:20 *m  186.91863   2.37731 187.19931   2.24651 283.0385  17.1561
 2018-Dec-02 02:25 *m  186.95646   2.35926 187.24016   2.22684 282.3459  16.1422
 2018-Dec-02 02:30 *m  186.99464   2.34122 187.28174   2.20696 281.6613  15.1262
 2018-Dec-02 02:35 *m  187.03318   2.32318 187.32411   2.18684 280.9844  14.1084
 2018-Dec-02 02:40 *m  187.07207   2.30515 187.36738   2.16641 280.3146  13.0891
 2018-Dec-02 02:45 *m  187.11133   2.28713 187.41167   2.14561 279.6513  12.0687
 2018-Dec-02 02:50 *m  187.15095   2.26911 187.45714   2.12435 278.9941  11.0474
 2018-Dec-02 02:55 *m  187.19094   2.25110 187.50401   2.10249 278.3425  10.0257
 2018-Dec-02 03:00 *m  187.23129   2.23309 187.55258   2.07988 277.6959   9.0041
 2018-Dec-02 03:05 *m  187.27200   2.21510 187.60328   2.05626 277.0541   7.9832
 2018-Dec-02 03:10 *m  187.31309   2.19711 187.65671   2.03128 276.4164   6.9639
 2018-Dec-02 03:15 *m  187.35454   2.17913 187.71377   2.00443 275.7824   5.9473
 2018-Dec-02 03:20 *m  187.39637   2.16116 187.77589   1.97490 275.1518   4.9352
 2018-Dec-02 03:25 *m  187.43856   2.14320 187.84534   1.94137 274.5241   3.9305
 2018-Dec-02 03:30 *m  187.48113   2.12525 187.92591   1.90165 273.8988   2.9375
 2018-Dec-02 03:35 *m  187.52407   2.10731 188.02419   1.85197 273.2755   1.9640
 2018-Dec-02 03:40 *m  187.56738   2.08938 188.15131   1.78591 272.6538   1.0230
 2018-Dec-02 03:45 *m  187.61106   2.07146 188.32090   1.69564 272.0334   0.1304
 2018-Dec-02 03:50 *s  187.65511   2.05355 188.45069   1.62862 271.4137  -0.8088
 2018-Dec-02 03:55 *   187.69953   2.03565 188.49521   1.61093 270.7943  -1.8467
 2018-Dec-02 04:00 *   187.74432   2.01776 188.54004   1.59313 270.1750  -2.8844
 2018-Dec-02 04:05 *   187.78949   1.99988 188.58518   1.57524 269.5551  -3.9219
 2018-Dec-02 04:10 *   187.83502   1.98202 188.63061   1.55724 268.9344  -4.9589
 2018-Dec-02 04:15 *   187.88092   1.96416 188.67635   1.53914 268.3124  -5.9955
 2018-Dec-02 04:20 *   187.92718   1.94632 188.72239   1.52093 267.6887  -7.0313
 2018-Dec-02 04:25 *   187.97381   1.92849 188.76873   1.50263 267.0628  -8.0664
 2018-Dec-02 04:30 *   188.02081   1.91068 188.81536   1.48421 266.4343  -9.1006
 2018-Dec-02 04:35 *   188.06816   1.89288 188.86229   1.46570 265.8028 -10.1337
 2018-Dec-02 04:40 *   188.11588   1.87508 188.90950   1.44708 265.1679 -11.1657
 2018-Dec-02 04:45 *   188.16395   1.85731 188.95700   1.42835 264.5290 -12.1964
 2018-Dec-02 04:50 *   188.21239   1.83954 189.00478   1.40951 263.8858 -13.2256
 2018-Dec-02 04:55 *   188.26117   1.82179 189.05284   1.39057 263.2377 -14.2533
 2018-Dec-02 05:00 *   188.31031   1.80406 189.10118   1.37151 262.5842 -15.2792
 2018-Dec-02 05:05 *   188.35979   1.78633 189.14978   1.35234 261.9249 -16.3032
 2018-Dec-02 05:10 *   188.40962   1.76862 189.19865   1.33306 261.2593 -17.3252
 2018-Dec-02 05:15 *   188.45980   1.75092 189.24777   1.31365 260.5867 -18.3451
 2018-Dec-02 05:20 *   188.51031   1.73324 189.29715   1.29413 259.9067 -19.3626
 2018-Dec-02 05:25 *   188.56116   1.71557 189.34677   1.27449 259.2188 -20.3776
 2018-Dec-02 05:30 *   188.61235   1.69792 189.39663   1.25473 258.5222 -21.3898
 2018-Dec-02 05:35 *   188.66386   1.68028 189.44672   1.23483 257.8165 -22.3993
 2018-Dec-02 05:40 *   188.71571   1.66265 189.49703   1.21481 257.1010 -23.4056
 2018-Dec-02 05:45 *   188.76787   1.64504 189.54755   1.19466 256.3750 -24.4088
 2018-Dec-02 05:50 *   188.82036   1.62744 189.59828   1.17436 255.6378 -25.4084
 2018-Dec-02 05:55 *   188.87316   1.60986 189.64921   1.15393 254.8889 -26.4044
 2018-Dec-02 06:00 *   188.92627   1.59229 189.70032   1.13336 254.1273 -27.3965
 2018-Dec-02 06:05 *   188.97968   1.57473 189.75160   1.11264 253.3525 -28.3844
 2018-Dec-02 06:10 *   189.03340   1.55719 189.80305   1.09177 252.5635 -29.3679
 2018-Dec-02 06:15 *   189.08742   1.53967 189.85465   1.07075 251.7596 -30.3468
 2018-Dec-02 06:20 *   189.14173   1.52215 189.90639   1.04957 250.9398 -31.3207
 2018-Dec-02 06:25 *   189.19633   1.50465 189.95825   1.02822 250.1033 -32.2895
 2018-Dec-02 06:30 *   189.25121   1.48717 190.01022   1.00671 249.2491 -33.2526
 2018-Dec-02 06:35 *   189.30638   1.46970 190.06229   0.98503 248.3763 -34.2099
 2018-Dec-02 06:40 *   189.36181   1.45224 190.11443   0.96318 247.4838 -35.1610
 2018-Dec-02 06:45 *   189.41752   1.43480 190.16664   0.94114 246.5705 -36.1055
 2018-Dec-02 06:50 *   189.47348   1.41737 190.21890   0.91893 245.6353 -37.0430
 2018-Dec-02 06:55 *   189.52971   1.39995 190.27118   0.89652 244.6771 -37.9731
 2018-Dec-02 07:00 *   189.58619   1.38255 190.32347   0.87393 243.6945 -38.8953
 2018-Dec-02 07:05 *   189.64291   1.36516 190.37574   0.85114 242.6864 -39.8093
 2018-Dec-02 07:10 *   189.69988   1.34779 190.42797   0.82815 241.6514 -40.7145
 2018-Dec-02 07:15 *   189.75708   1.33042 190.48014   0.80496 240.5881 -41.6103
 2018-Dec-02 07:20 *   189.81451   1.31307 190.53223   0.78157 239.4951 -42.4962
 2018-Dec-02 07:25 *   189.87217   1.29574 190.58420   0.75798 238.3709 -43.3716
 2018-Dec-02 07:30 *   189.93004   1.27841 190.63604   0.73418 237.2140 -44.2359
 2018-Dec-02 07:35 *   189.98812   1.26110 190.68771   0.71018 236.0228 -45.0884
 2018-Dec-02 07:40 *   190.04641   1.24380 190.73918   0.68597 234.7956 -45.9284
 2018-Dec-02 07:45 *   190.10490   1.22651 190.79042   0.66157 233.5309 -46.7551
 2018-Dec-02 07:50 *   190.16358   1.20924 190.84140   0.63696 232.2269 -47.5676
